satname,norad_id,inclination_deg,eccentricity,mean_motion_rev_per_day,perigee_km,apogee_km,l1,l2
STARLINK-1570,46059,53.1618,0.0001179,15.31708546,469.9070405685643,471.52199975701933,1 46059U 20055AJ  26161.40058590  .00000207  00000+0  18426-4 0  9996,2 46059  53.1618  42.6407 0001179  91.3679 268.7457 15.31708546323238
STARLINK-1572,46060,53.1614,0.0001416,15.30188174,474.2799402980845,476.2208196040865,1 46060U 20055AK  26160.95374406  .00002183  00000+0  85846-4 0  9999,2 46060  53.1614  45.5572 0001416  84.9582 275.1581 15.30188174323166
STARLINK-1573,46061,53.1605,7.47e-05,15.31695652,470.24134433831114,471.2645684978006,1 46061U 20055AL  26161.38660111  .00000014  00000+0  12204-4 0  9998,2 46061  53.1605  42.6758 0000747 102.1246 257.9839 15.31695652323278
STARLINK-1577,46063,53.1599,0.0001216,15.31706947,469.8864657339518,471.5521075828674,1 46063U 20055AN  26160.95781724  .00004879  00000+0  16884-3 0  9996,2 46063  53.1599  44.6689 0001216  89.5263 270.5878 15.31706947323203
STARLINK-1583,46064,53.1607,0.0001162,15.31711299,469.910478108598,471.50214929470167,1 46064U 20055AP  26161.36337628  .00005727  00000+0  19610-3 0  9996,2 46064  53.1607  43.2801 0001162 100.9365 259.1768 15.31711299323258
STARLINK-1536,46070,53.1622,0.0001465,15.31704662,469.72273963761654,471.729456525356,1 46070U 20055AV  26161.36465890  .00002740  00000+0  10003-3 0  9995,2 46070  53.1622  30.6599 0001465  94.0854 266.0315 15.31704662323439
STARLINK-1542,46073,53.1598,0.0001039,15.31701817,470.022981091508,471.4461766055938,1 46073U 20055AY  26160.93227868  .00003813  00000+0  13457-3 0  9999,2 46073  53.1598  35.6408 0001039  86.3677 273.7443 15.31701817323315
STARLINK-1549,46074,53.0519,0.0002975,15.29466582,475.366274414112,479.4453223791588,1 46074U 20055AZ  26160.37217166  .00018145  00000+0  63736-3 0  9997,2 46074  53.0519  35.4172 0002975 127.0612 233.0659 15.29466582323251
STARLINK-1551,46075,53.1607,0.0001857,15.30370967,473.43206760601333,475.97721299121986,1 46075U 20055BA  26160.96352862  .00020210  00000+0  68899-3 0  9997,2 46075  53.1607  32.4618 0001857 148.9771 211.1340 15.30370967323368
STARLINK-1552,46076,53.1614,0.0001151,15.3170479,469.9374124234373,471.5140206207798,1 46076U 20055BB  26161.34162660  .00002176  00000+0  81863-4 0  9994,2 46076  53.1614  30.2888 0001151  93.2984 266.8150 15.31704790323415
STARLINK-1559,46077,53.024,9.65e-05,15.38572707,449.67016666808377,450.9880606280176,1 46077U 20055BC  26161.26276500  .00050108  00000+0  12980-2 0  9995,2 46077  53.0240 359.9940 0000965 120.5672 239.5426 15.38572707323792
STARLINK-1566,46079,53.1627,0.0001581,15.31694986,469.6721319235239,471.8377515555012,1 46079U 20055BE  26161.34626857  .00001185  00000+0  49962-4 0  9993,2 46079  53.1627  30.1178 0001581  97.6409 262.4772 15.31694986323439
STARLINK-1568,46080,53.0591,0.0002991,15.54492463,401.59995216474726,405.65680421398065,1 46080U 20055BF  26161.57896048  .00042524  00000+0  63839-3 0  9991,2 46080  53.0591 307.0892 0002991  68.4215 291.7114 15.54492463324602
STARLINK-1578,46082,53.1616,0.000121,15.31699568,469.9125687232281,471.5699972677139,1 46082U 20055BH  26161.35065853  .00002279  00000+0  85182-4 0  9990,2 46082  53.1616  30.6138 0001210  95.2590 264.8549 15.31699568323424
STARLINK-1579,46083,53.1588,9.22e-05,15.31734574,470.0054769126373,471.2683908260433,1 46083U 20055BJ  26161.33693252  .00010292  00000+0  34258-3 0  9990,2 46083  53.1588  30.2160 0000922 109.0855 251.0247 15.31734574323421
STARLINK-1622,46128,53.0132,0.0006303,15.85925251,309.5028437004039,317.9385995442817,1 46128U 20057M   26161.66670139  .00226357  00000+0  88182-3 0  9993,2 46128  53.0132 121.7269 0006303  79.0928 206.7730 15.85925251  5904
STARLINK-1623,46129,53.0397,0.0006081,15.75388215,339.43925370007855,347.6141410888504,1 46129U 20057N   26161.28297419  .00121501  00000+0  77956-3 0  9990,2 46129  53.0397 162.0655 0006081  38.6849 321.4604 15.75388215321415
STARLINK-1596,46141,53.0341,0.0006886,15.60069612,382.7970273353603,392.1146017595547,1 46141U 20057AA  26161.20282793  .00092646  00000+0  11148-2 0  9992,2 46141  53.0341 145.2188 0006886  41.2894 318.8638 15.60069612321648
STARLINK-1597,46142,53.0401,0.0005236,15.75174859,340.61386493357804,347.6534267539055,1 46142U 20057AB  26161.38686642  .00109288  00000+0  70937-3 0  9996,2 46142  53.0401 201.2970 0005236  34.2825 325.8531 15.75174859320861
STARLINK-1606,46144,53.0317,0.0002306,15.96266761,283.2505522769052,286.3234928361089,1 46144U 20057AD  26161.66670139  .00353993  61447-4  83748-3 0  9998,2 46144  53.0317 152.3976 0002306 171.9175 315.4624 15.96266761  5970
STARLINK-1608,46146,53.1583,0.0004954,15.3626005,453.7941422064805,460.5665746452087,1 46146U 20057AF  26161.51958181  .00040826  00000+0  11428-2 0  9996,2 46146  53.1583 236.6805 0004954 348.9942  11.0952 15.36260050320415
STARLINK-1667,46155,53.0086,0.0005654,15.9238336,291.84202195846046,299.38870112889435,1 46155U 20057AQ  26161.66670139  .00350111  57842-4  10180-2 0  9992,2 46155  53.0086 120.7844 0005654  83.7374 286.5873 15.92383360  5973
STARLINK-1545,46156,53.0382,0.0001007,15.87367514,308.99321818906174,310.34014185021624,1 46156U 20057AR  26161.66670139  .00196610  00000+0  71744-3 0  9998,2 46156  53.0382 157.2074 0001007 112.0018 181.2760 15.87367514  5908
STARLINK-1595,46159,53.0396,0.0005902,15.72987092,346.3940903117682,354.33641437043207,1 46159U 20057AU  26161.29514521  .00106443  00000+0  75938-3 0  9996,2 46159  53.0396 204.5511 0005902  19.2652 340.8588 15.72987092322072
STARLINK-1598,46160,53.0429,0.0001495,15.72692044,350.20073178116854,352.2128055680032,1 46160U 20057AV  26161.33332302  .00084888  00000+0  61623-3 0  9992,2 46160  53.0429 190.5193 0001495 338.7812  21.3143 15.72692044322260
STARLINK-1626,46167,53.0396,0.0001567,15.75981984,340.7852627930406,342.89130304670834,1 46167U 20057BC  26161.31740034  .00106038  00000+0  66522-3 0  9997,2 46167  53.0396 199.9953 0001567  66.1317 293.9866 15.75981984320881
STARLINK-1633,46171,53.0319,0.0001568,15.84167047,317.6210978279869,319.7212168661308,1 46171U 20057BG  26161.66670139  .00093179  00000+0  40334-3 0  9992,2 46171  53.0319 159.1478 0001568 110.0280 104.2290 15.84167047  6028
STARLINK-1635,46172,53.0324,0.0001486,15.90548547,299.7543310938745,301.7392953631661,1 46172U 20057BH  26161.66670139  .00266842  00000+0  82293-3 0  9992,2 46172  53.0324 156.9023 0001486 114.7583  72.3382 15.90548547  5966
